STARLINK-3060_new
1 19155C 21082AB  21326.12293332 -.00030418  00000-0 -25452-3 0  3269
2 19155  69.9980 292.8965 0004026 293.9839  12.2516 15.69803547    19
STARLINK-3060_old
1 29155C 21082AB  21325.18925226 -.00033738  00000-0 -28190-3 0  3257
2 29155  69.9980 295.5213 0003992 294.5519 136.7532 15.69840828    11
